OSCAR 7 (AO-7)          
1 07530U 74089B   22016.87651242 -.00000045  00000+0  34636-5 0  9995
2 07530 101.8856 356.3839 0012206 333.7533  80.7778 12.53652404158475
PHASE 3B (AO-10)        
1 14129U 83058B   22012.36343278 -.00000004  00000+0  00000+0 0  9997
2 14129  26.3762 121.4645 5977881  40.0888 351.2140  2.05868331262193
UOSAT 2 (UO-11)         
1 14781U 84021B   22016.89530768  .00000553  00000+0  73431-4 0  9997
2 14781  97.6054  11.3755 0009928  98.4806 261.7534 14.83412660 17572
LUSAT (LO-19)           
1 20442U 90005G   22017.14676667  .00000043  00000+0  32474-4 0  9991
2 20442  98.7730 339.8818 0010706 251.9223 108.0794 14.33016541671490
EYESAT A (AO-27)        
1 22825U 93061C   22017.04676585  .00000043  00000+0  34658-4 0  9997
2 22825  98.9036  44.7516 0009265 128.8478 231.3531 14.30139887476787
ITAMSAT (IO-26)         
1 22826U 93061D   22016.89645506  .00000057  00000+0  39812-4 0  9991
2 22826  98.8979  44.4880 0009909 117.6209 242.5979 14.30481632476741
RADIO ROSTO (RS-15)     
1 23439U 94085A   22017.26892305 -.00000037  00000+0  15882-3 0  9991
2 23439  64.8187  30.1451 0166685 298.2484  60.1701 11.27571157114446
JAS-2 (FO-29)           
1 24278U 96046B   22016.92334944  .00000009  00000+0  47674-4 0  9997
2 24278  98.5380  61.3122 0349544 316.5212  40.8845 13.53109193255110
TECHSAT 1B (GO-32)      
1 25397U 98043D   22016.84106544  .00000010  00000+0  23989-4 0  9998
2 25397  98.7992 327.0748 0001558 143.6005 216.5280 14.23728219221852
ISS (ZARYA)             
1 25544U 98067A   22017.05238103  .00012676  00000+0  23344-3 0  9994
2 25544  51.6436   5.0305 0006458  29.0373  76.2381 15.49527213321740
PCSAT (NO-44)           
1 26931U 01043C   22016.89208620  .00000047  00000+0  49749-4 0  9992
2 26931  67.0516  89.5854 0006842 280.5379  79.4951 14.30655106 59720
SAUDISAT 1C (SO-50)     
1 27607U 02058C   22016.68688770  .00000486  00000+0  88688-4 0  9997
2 27607  64.5554  46.2195 0066569 325.1346  34.5404 14.75874732 25977
CUTE-1 (CO-55)          
1 27844U 03031E   22016.90757327  .00000160  00000+0  91554-4 0  9997
2 27844  98.6801  26.8775 0009941 175.0404 185.0874 14.22370006962328
CUBESAT XI-IV (CO-57)   
1 27848U 03031J   22016.96475361  .00000128  00000+0  77834-4 0  9991
2 27848  98.6851  27.4791 0009562 188.5823 171.5192 14.21938565962181
MOZHAYETS 4 (RS-22)     
1 27939U 03042A   22017.06931308  .00000409  00000+0  81514-4 0  9996
2 27939  98.1669 158.0776 0012059 331.1757  28.8750 14.67104656978845
CUBESAT XI-V            
1 28895U 05043F   22016.87649151  .00000581  00000+0  11962-3 0  9991
2 28895  98.0842 150.8414 0015517 257.2127 102.7341 14.64055507865232
FALCONSAT-3             
1 30776U 07006E   22017.11770314  .00019792  00000+0  41669-3 0  9998
2 30776  35.4319 164.0247 0002273  51.8871 308.2063 15.44383262826116
CUTE-1.7+APD II (CO-65) 
1 32785U 08021C   22016.78529415  .00001239  00000+0  13721-3 0  9999
2 32785  97.6381 352.6924 0013475  22.9477 337.2340 14.88993063743910
DELFI-C3 (DO-64)        
1 32789U 08021G   22016.65590958  .00007073  00000+0  43333-3 0  9993
2 32789  97.3560  48.7223 0012762 124.3617 235.8822 15.10406005748998
SEEDS II (CO-66)        
1 32791U 08021J   22016.89396186  .00002078  00000+0  21117-3 0  9995
2 32791  97.5945 358.4715 0012565 342.1850  17.8927 14.91798722744670
YUBILEINY (RS-30)       
1 32953U 08025A   22017.15162238  .00000021  00000+0  80971-4 0  9998
2 32953  82.5038 278.0186 0018569 230.4343 129.5094 12.43106787619533
KKS-1 (KISEKI)          
1 33499U 09002H   22016.92050017  .00000492  00000+0  79641-4 0  9999
2 33499  98.2394 256.2684 0010360  80.6659 279.5720 14.75782638697894
SWISSCUBE               
1 35932U 09051B   22017.12956268  .00000455  00000+0  11295-3 0  9992
2 35932  98.5836 228.6939 0008070 145.2743 214.8982 14.56659845654106
BEESAT-1                
1 35933U 09051C   22017.08777336  .00000395  00000+0  99474-4 0  9994
2 35933  98.5786 230.3733 0006071 155.0609 205.0882 14.56702272654218
ITUPSAT1                
1 35935U 09051E   22016.87607706  .00000372  00000+0  95951-4 0  9996
2 35935  98.5887 230.2481 0008317 160.5883 199.5631 14.55826118653821
XIWANG-1 (HOPE-1)       
1 36122U 09072B   22016.87218878 -.00000024  00000+0  49498-4 0  9996
2 36122 100.1622 353.9419 0007243 334.9287  25.1474 13.16365192580861
JUGNU                   
1 37839U 11058B   22017.11714281  .00000357  00000+0  48446-4 0  9996
2 37839  19.9630  13.3566 0018666 288.2992 123.0567 14.12743002530827
SRMSAT                  
1 37841U 11058D   22016.91530269  .00000353  00000+0  48616-4 0  9993
2 37841  19.9724  90.8789 0011959 118.2433  39.0643 14.10721548529818
M-CUBED & EXP-1 PRIME   
1 37855U 11061F   22016.75189599  .00006174  00000+0  29126-3 0  9991
2 37855 101.7192  56.2345 0162343 155.6485 205.2510 15.09249388558337
STRAND-1                
1 39090U 13009E   22017.08990707  .00000161  00000+0  71210-4 0  9998
2 39090  98.4108 219.0863 0009263   9.4811 350.6548 14.35231611465705
SOMP                    
1 39134U 13015E   22016.87502005  .00009273  00000+0  38052-3 0  9999
2 39134  64.8612 197.6386 0028173 302.9702  56.8719 15.24393296484100
BEESAT-3                
1 39135U 13015F   22016.95346213  .00006655  00000+0  30646-3 0  9998
2 39135  64.8658 230.2668 0028078 313.4628  46.4164 15.20779095483486
BEESAT-2                
1 39136U 13015G   22016.85031578  .00006270  00000+0  29808-3 0  9994
2 39136  64.8744 237.9338 0011566 257.1613 102.8222 15.20018482482851
ZACUBE-1 (TSHEPISOSAT)  
1 39417U 13066B   22016.92796855  .00000957  00000+0  12420-3 0  9994
2 39417  97.6178 355.5088 0058288 179.9277 180.1955 14.81777031440681
GOMX-1                  
1 39430U 13066Q   22017.12909090  .00000373  00000+0  75661-4 0  9998
2 39430  97.8161 292.9485 0150268 161.2724 199.4094 14.59809248434217
CUBEBUG-2 (LO-74)       
1 39440U 13066AA  22017.15040977  .00001067  00000+0  15309-3 0  9995
2 39440  97.7065 341.3164 0078006 262.2523  96.9826 14.76496942439155
FUNCUBE-1 (AO-73)       
1 39444U 13066AE  22016.91336685  .00001166  00000+0  14665-3 0  9990
2 39444  97.6067 357.8866 0057545 169.0997 191.1479 14.82735635439069
UWE-3                   
1 39446U 13066AG  22016.89157248  .00000925  00000+0  12722-3 0  9999
2 39446  97.6654 347.7589 0068259 222.6253 136.9651 14.79036163438646
SPROUT                  
1 39770U 14029E   22017.14372030  .00002459  00000+0  26617-3 0  9998
2 39770  97.9288 133.5280 0008253 215.1844 144.8906 14.89175174415139
UNISAT-6                
1 40012U 14033C   22016.80214735  .00000857  00000+0  13300-3 0  9998
2 40012  97.6616 212.8794 0056615 290.6164  68.8979 14.74507491407637
DUCHIFAT-1              
1 40021U 14033M   22016.80201070  .00002251  00000+0  22863-3 0  9990
2 40021  97.9962 324.5574 0012562 174.6622 185.4732 14.91813195412082
QB50P1                  
1 40025U 14033R   22017.10063476  .00001548  00000+0  16721-3 0  9998
2 40025  97.9498 313.5328 0011884 189.2058 170.8943 14.89772154411735
NUDT-PHONESAT           
1 40900U 15049B   22017.18720606  .00010627  00000+0  37717-3 0  9997
2 40900  97.4127  35.1362 0013253 101.4686 322.9697 15.29150017351452
ZDPS 2A                 
1 40901U 15049C   22017.20718911  .00005176  00000+0  23682-3 0  9996
2 40901  97.4619  27.1184 0013135 147.0283 343.3762 15.20888408350441
ZDPS 2B                 
1 40902U 15049D   22017.23251537  .00005079  00000+0  23198-3 0  9990
2 40902  97.4689  24.6380 0013240 144.5269 275.3362 15.20960300350422
XW-2A                   
1 40903U 15049E   22017.16941815  .00010527  00000+0  20383-3 0  9995
2 40903  97.2090  75.9409 0009552 320.7647 123.5734 15.47857779355827
KAITUO 1A               
1 40904U 15049F   22017.22117008  .00001766  00000+0  93311-4 0  9999
2 40904  97.4925  21.3505 0014135 169.1370 323.5677 15.16734664349936
2015-049G               
1 40905U 15049G   22017.15387913  .00001341  00000+0  74218-4 0  9990
2 40905  97.5093  18.4110 0015369 170.9924 258.9727 15.15470905349692
XW-2C                   
1 40906U 15049H   22017.25487740  .00002690  00000+0  13737-3 0  9997
2 40906  97.4915  22.0919 0014481 157.8478 214.0449 15.17472395349988
XW-2D                   
1 40907U 15049J   22017.20746590  .00002957  00000+0  14891-3 0  9992
2 40907  97.4909  21.9253 0014096 153.6153 268.7763 15.17890948350016
LILACSAT-2              
1 40908U 15049K   22017.25380954  .00001630  00000+0  90976-4 0  9992
2 40908  97.5125  19.4880 0015392 173.8203 195.3512 15.14869037349596
XW-2E                   
1 40909U 15049L   22017.25052241  .00004536  00000+0  20869-3 0  9999
2 40909  97.4666  26.2452 0013541 136.4633 279.8716 15.20761244350418
XW-2F                   
1 40910U 15049M   22017.12860753  .00004422  00000+0  20645-3 0  9998
2 40910  97.4741  25.2275 0014814 138.6946 286.7121 15.20252389350176
XW-2B                   
1 40911U 15049N   22017.22222400  .00002759  00000+0  13954-3 0  9997
2 40911  97.4894  22.5838 0014135 155.4193 265.2848 15.17797425349906
KAITUO 1B               
1 40912U 15049P   22017.22035017  .00005041  00000+0  21704-3 0  9993
2 40912  97.4423  29.6920 0015305 110.2592 314.7654 15.22953444350714
TIANWANG 1A (TW-1A)     
1 40928U 15051D   22017.17097414  .00017101  00000+0  30716-3 0  9999
2 40928  97.0604  42.2133 0007057 222.9822 205.4718 15.49914297354743
LAPAN-A2                
1 40931U 15052B   22017.10252864  .00000706  00000+0  91126-5 0  9996
2 40931   5.9946 168.5860 0012807 192.2047 167.8016 14.76719240340938
E-ST@R-II               
1 41459U 16025D   22017.22616290  .00005860  00000+0  27473-3 0  9991
2 41459  98.1662 171.8146 0155817  61.8427 299.8535 15.09910459314653
AAUSAT 4                
1 41460U 16025E   22017.23299123  .00008241  00000+0  36017-3 0  9996
2 41460  98.1618 176.8802 0140386  41.5869 319.6025 15.13843468315027
